EYESAT A (AO-27)        
1 22825U 93061C   26169.74797184  .00000072  00000+0  44201-4 0  9992
2 22825  98.6880 237.1610 0009544  95.7674 264.4597 14.30942648707226
ITAMSAT (IO-26)         
1 22826U 93061D   26169.72691892  .00000075  00000+0  45080-4 0  9999
2 22826  98.6828 237.0576 0010059  80.9197 279.3124 14.31369569707539
RADIO ROSTO (RS15)      
1 23439U 94085A   26169.80107356 -.00000048  00000+0 -14248-3 0  9996
2 23439  64.8179 300.6061 0155998   3.5777 356.6226 11.27583485296089
JAS-2 (FO-29)           
1 24278U 96046B   26169.86373956 -.00000009  00000+0  23419-4 0  9991
2 24278  98.5238  18.5062 0350921  92.0938 272.0420 13.53274506473392
FORTE                   
1 24920U 97047A   26169.84605964  .00000110  00000+0  67729-4 0  9996
2 24920  69.9539  10.2742 0024628 275.3454  84.4858 14.27945656498926
TECHSAT 1B (GO-32)      
1 25397U 98043D   26169.75022169  .00000035  00000+0  35257-4 0  9999
2 25397  99.0067 162.5483 0001133 159.7201 200.4022 14.24428644451550
ISS (ZARYA)             
1 25544U 98067A   26169.80206885  .00008155  00000+0  15439-3 0  9994
2 25544  51.6331 292.1003 0004667 202.2920 157.7867 15.49302471572009
IMAGE                   
1 26113U 00017A   26162.34581823  .00000011  00000+0  22926-1 0  9995
2 26113  94.2241 315.2958 7436383 288.4674   8.8959  1.68665984161407
CLUSTER II-FM7 (SAMBA)  
1 26410U 00041A   26170.36958808  .00004714  00000+0  00000+0 0  9995
2 26410 149.9200  51.3283 9058303 268.5109 359.4853  0.44833363 20329
CLUSTER II-FM8 (TANGO)  
1 26464U 00045B   26166.18760269  .00011725  00000+0  00000+0 0  9995
2 26464 150.1504  51.7507 9057004 268.7261   2.8044  0.44418308 20307
ODIN                    
1 26702U 01007A   26169.68178970  .00153947  00000+0  96741-3 0  9993
2 26702  97.3818 210.7208 0006625 142.4379 217.7350 15.76258882389630
OMNI-M1                 
1 26857U 01026A   26167.20907279 -.00000001  00000+0  00000+0 0  9995
2 26857  44.8307 245.4893 0014194  53.4474 306.7446  3.92401638205538
PCSAT (NO-44)           
1 26931U 01043C   26169.48637696  .00000076  00000+0  59455-4 0  9996
2 26931  67.0504 240.9116 0006080 264.6354  95.4054 14.31956504290637
PROBA-1                 
1 26958U 01049B   26169.86246561  .00000848  00000+0  58473-4 0  9996
2 26958  97.9594 178.4534 0056497 116.3541 244.3503 15.07497209343879
SAUDISAT 1C (SO-50)     
1 27607U 02058C   26169.36907802  .00000788  00000+0  11046-3 0  9993
2 27607  64.5511 125.3282 0075194 262.2562  97.0002 14.83049237264630
CORIOLIS                
1 27640U 03001A   26169.74741235  .00000070  00000+0  53371-4 0  9999
2 27640  98.7124 176.6084 0013481 204.0411 156.0138 14.19945168214440
CUTE-1 (CO-55)          
1 27844U 03031E   26169.72312841  .00000216  00000+0  11222-3 0  9993
2 27844  98.6736 178.2627 0009643 173.5600 186.5705 14.24336519191891
CUBESAT XI-IV (CO-57)   
1 27848U 03031J   26168.93924090  .00000186  00000+0  10079-3 0  9999
2 27848  98.6765 177.2007 0009073 194.7196 165.3719 14.23621196191482
MOZHAETS 4 (RS22)       
1 27939U 03042A   26169.85155837  .00001161  00000+0  18710-3 0  9993
2 27939  98.3465 354.2570 0009917 263.9004 208.4912 14.73471325215790
